[{"OBJECT_NAME":"STARLINK-33594","OBJECT_ID":"2025-015N","EPOCH":"2026-03-09T22:29:10.700160","MEAN_MOTION":15.30199288,"ECCENTRICITY":7.18e-5,"INCLINATION":53.1581,"RA_OF_ASC_NODE":320.9801,"ARG_OF_PERICENTER":115.1815,"MEAN_ANOMALY":244.926,"EPHEMERIS_TYPE":0,"CLASSIFICATION_TYPE":"U","NORAD_CAT_ID":62770,"ELEMENT_SET_NO":999,"REV_AT_EPOCH":6452,"BSTAR":0.00097289151,"MEAN_MOTION_DOT":0.00028565,"MEAN_MOTION_DDOT":0},{"OBJECT_NAME":"CZ-2C DEB","OBJECT_ID":"2026-009C","EPOCH":"2026-03-09T19:20:16.840608","MEAN_MOTION":15.15876918,"ECCENTRICITY":0.01015815,"INCLINATION":97.2202,"RA_OF_ASC_NODE":140.8028,"ARG_OF_PERICENTER":36.3959,"MEAN_ANOMALY":324.4125,"EPHEMERIS_TYPE":0,"CLASSIFICATION_TYPE":"U","NORAD_CAT_ID":67586,"ELEMENT_SET_NO":999,"REV_AT_EPOCH":810,"BSTAR":0.0025681251,"MEAN_MOTION_DOT":0.0005635,"MEAN_MOTION_DDOT":0}]
